[{"OBJECT_NAME":"STARLINK-30157","OBJECT_ID":"2023-113T","EPOCH":"2026-03-09T22:00:01.999584","MEAN_MOTION":15.24444459,"ECCENTRICITY":0.00013627,"INCLINATION":43.0007,"RA_OF_ASC_NODE":348.8979,"ARG_OF_PERICENTER":302.1923,"MEAN_ANOMALY":3.8526,"EPHEMERIS_TYPE":0,"CLASSIFICATION_TYPE":"U","NORAD_CAT_ID":57512,"ELEMENT_SET_NO":999,"REV_AT_EPOCH":578,"BSTAR":0.060939524,"MEAN_MOTION_DOT":0.01691178,"MEAN_MOTION_DDOT":0},{"OBJECT_NAME":"OBJECT H","OBJECT_ID":"2025-055H","EPOCH":"2026-03-09T23:29:50.051328","MEAN_MOTION":15.30330066,"ECCENTRICITY":0.00075967,"INCLINATION":97.636,"RA_OF_ASC_NODE":211.9572,"ARG_OF_PERICENTER":140.4354,"MEAN_ANOMALY":219.7441,"EPHEMERIS_TYPE":0,"CLASSIFICATION_TYPE":"U","NORAD_CAT_ID":63298,"ELEMENT_SET_NO":999,"REV_AT_EPOCH":5423,"BSTAR":0.0015582864,"MEAN_MOTION_DOT":0.00045901,"MEAN_MOTION_DDOT":0}]
